NORAD_CAT_ID,OBJECT_NAME,OBJECT_TYPE,EPOCH,MEAN_MOTION,ECCENTRICITY,INCLINATION,RA_OF_ASC_NODE,ARG_OF_PERICENTER,MEAN_ANOMALY,BSTAR,MEAN_MOTION_DOT,MEAN_MOTION_DDOT,TLE_LINE0,TLE_LINE1,TLE_LINE2,SEMIMAJOR_AXIS,PERIOD,APOGEE,PERIGEE,DECAYED
52679.0,STARLINK-4031,PAYLOAD,2023-10-25 14:12:43,15.08841144,0.0001438,53.2179,72.1827,93.9706,266.1451,3.4604e-05,2.63e-06,0.0,0 STARLINK-4031,1 52679U 22053Z   23298.59216870  .00000263  00000-0  34604-4 0  9995,2 52679  53.2179  72.1827 0001438  93.9706 266.1451 15.08841144 79990,6917.877,95.437,540.737,538.747,0.0
52679.0,STARLINK-4031,PAYLOAD,2023-10-26 14:03:30,15.08842605,0.0001614,53.2175,67.7209,105.6551,254.4619,6.0001e-05,6.67e-06,0.0,0 STARLINK-4031,1 52679U 22053Z   23299.58576637  .00000667  00000-0  60001-4 0  9993,2 52679  53.2175  67.7209 0001614 105.6551 254.4619 15.08842605 80536,6917.872,95.437,540.854,538.621,0.0
52679.0,STARLINK-4031,PAYLOAD,2023-10-26 15:38:53,15.08840705,0.000157,53.2186,67.425,104.799,255.3176,0.00010041,1.31e-05,0.0,0 STARLINK-4031,1 52679U 22053Z   23299.65200601  .00001310  00000-0  10041-3 0  9990,2 52679  53.2186  67.4250 0001570 104.7990 255.3176 15.08840705 80154,6917.878,95.438,540.829,538.657,0.0
52679.0,STARLINK-4031,PAYLOAD,2023-10-27 09:08:07,15.08844207,0.0001424,53.2185,64.1533,100.1649,259.9504,6.2509e-05,7.07e-06,0.0,0 STARLINK-4031,1 52679U 22053Z   23300.38064560  .00000707  00000-0  62509-4 0  9991,2 52679  53.2185  64.1533 0001424 100.1649 259.9504 15.08844207 80651,6917.868,95.437,540.718,538.747,0.0
52679.0,STARLINK-4031,PAYLOAD,2023-10-27 15:29:39,15.08852934,0.0001604,53.2191,62.9638,92.2968,267.8208,0.00012546,1.71e-05,0.0,0 STARLINK-4031,1 52679U 22053Z   23300.64559743  .00001710  00000-0  12546-3 0  9992,2 52679  53.2191  62.9638 0001604  92.2968 267.8208 15.08852934 80302,6917.841,95.437,540.815,538.596,0.0
52679.0,STARLINK-4031,PAYLOAD,2023-10-28 07:23:33,15.08820994,0.0001588,53.2187,59.9906,88.3343,271.7831,-7.0915e-05,-1.416e-05,0.0,0 STARLINK-4031,1 52679U 22053Z   23301.30802437 -.00001416  00000-0 -70915-4 0  9997,2 52679  53.2187  59.9906 0001588  88.3343 271.7831 15.08820994 80403,6917.938,95.439,540.902,538.705,0.0
52679.0,STARLINK-4031,PAYLOAD,2023-10-28 13:45:05,15.08826879,0.0001584,53.2191,58.8014,84.3189,275.7984,-8.1772e-05,-1.589e-05,0.0,0 STARLINK-4031,1 52679U 22053Z   23301.57298316 -.00001589  00000-0 -81772-4 0  9995,2 52679  53.2191  58.8014 0001584  84.3189 275.7984 15.08826879 80834,6917.92,95.438,540.881,538.69,0.0
52679.0,STARLINK-4031,PAYLOAD,2023-10-28 15:20:28,15.08836059,0.0001279,53.218,58.501,90.1865,269.9273,-5.9235e-05,-1.23e-05,0.0,0 STARLINK-4031,1 52679U 22053Z   23301.63921578 -.00001230  00000-0 -59235-4 0  9997,2 52679  53.2180  58.5010 0001279  90.1865 269.9273 15.08836059 80457,6917.892,95.438,540.642,538.873,0.0
52679.0,STARLINK-4031,PAYLOAD,2023-10-29 00:52:46,15.08841491,0.0001566,53.2191,56.716,72.7409,287.3755,2.7266e-05,1.46e-06,0.0,0 STARLINK-4031,1 52679U 22053Z   23302.03665195  .00000146  00000-0  27266-4 0  9994,2 52679  53.2191  56.7160 0001566  72.7409 287.3755 15.08841491 80516,6917.876,95.437,540.824,538.657,0.0
52679.0,STARLINK-4031,PAYLOAD,2023-10-29 12:00:27,15.08849066,0.0001258,53.218,54.6353,72.717,287.396,0.0002105,3.065e-05,0.0,0 STARLINK-4031,1 52679U 22053Z   23302.50032076  .00003065  00000-0  21050-3 0  9999,2 52679  53.2180  54.6353 0001258  72.7170 287.3960 15.08849066 80589,6917.853,95.437,540.588,538.847,0.0
52679.0,STARLINK-4031,PAYLOAD,2023-10-29 13:35:50,15.08864144,0.0001746,53.2185,54.3381,95.3397,264.7795,2.704e-05,1.42e-06,0.0,0 STARLINK-4031,1 52679U 22053Z   23302.56655540  .00000142  00000-0  27040-4 0  9991,2 52679  53.2185  54.3381 0001746  95.3397 264.7795 15.08864144 80989,6917.807,95.436,540.879,538.464,0.0
52679.0,STARLINK-4031,PAYLOAD,2023-10-29 15:11:12,15.08867891,0.0001162,53.2179,54.0443,90.7428,269.3697,0.00020348,2.954e-05,0.0,0 STARLINK-4031,1 52679U 22053Z   23302.63278746  .00002954  00000-0  20348-3 0  9994,2 52679  53.2179  54.0443 0001162  90.7428 269.3697 15.08867891 80607,6917.795,95.436,540.464,538.856,0.0
52679.0,STARLINK-4031,PAYLOAD,2023-10-30 11:51:16,15.08822204,0.0001561,53.2185,50.1791,81.1443,278.9726,9.7682e-05,1.266e-05,0.0,0 STARLINK-4031,1 52679U 22053Z   23303.49394289  .00001266  00000-0  97682-4 0  9991,2 52679  53.2185  50.1791 0001561  81.1443 278.9726 15.08822204 80733,6917.935,95.439,540.88,538.72,0.0
52679.0,STARLINK-4031,PAYLOAD,2023-10-30 13:26:39,15.08825088,0.0001471,53.2187,49.8808,85.8726,274.2435,0.00011865,1.6e-05,0.0,0 STARLINK-4031,1 52679U 22053Z   23303.56018098  .00001600  00000-0  11865-3 0  9990,2 52679  53.2187  49.8808 0001471  85.8726 274.2435 15.08825088 81138,6917.926,95.438,540.809,538.773,0.0
52679.0,STARLINK-4031,PAYLOAD,2023-10-31 00:34:21,15.08834499,0.0001044,53.2182,47.7983,81.0252,279.0858,3.8126e-05,3.19e-06,0.0,0 STARLINK-4031,1 52679U 22053Z   23304.02385867  .00000319  00000-0  38126-4 0  9999,2 52679  53.2182  47.7983 0001044  81.0252 279.0858 15.08834499 80814,6917.897,95.438,540.484,539.04,0.0
52679.0,STARLINK-4031,PAYLOAD,2023-10-31 13:17:26,15.0883708,0.0001166,53.2188,45.4192,78.3923,281.72,-6.0279e-05,-1.247e-05,0.0,0 STARLINK-4031,1 52679U 22053Z   23304.55378107 -.00001247  00000-0 -60279-4 0  9993,2 52679  53.2188  45.4192 0001166  78.3923 281.7200 15.08837080 81288,6917.889,95.438,540.561,538.948,0.0
52679.0,STARLINK-4031,PAYLOAD,2023-11-01 13:08:11,15.08856414,0.0001267,53.2189,40.9576,105.0529,255.0604,0.00030325,4.544e-05,0.0,0 STARLINK-4031,1 52679U 22053Z   23305.54735904  .00004544  00000-0  30325-3 0  9994,2 52679  53.2189  40.9576 0001267 105.0529 255.0604 15.08856414 81045,6917.83,95.437,540.572,538.819,0.0
52679.0,STARLINK-4031,PAYLOAD,2023-11-01 16:18:58,15.08849251,0.0001022,53.2184,40.3638,84.846,275.2649,0.00022332,3.269e-05,0.0,0 STARLINK-4031,1 52679U 22053Z   23305.67984500  .00003269  00000-0  22332-3 0  9998,2 52679  53.2184  40.3638 0001022  84.8460 275.2649 15.08849251 81066,6917.852,95.437,540.424,539.01,0.0
52679.0,STARLINK-4031,PAYLOAD,2023-11-02 12:59:00,15.08837043,0.0001495,53.2187,36.498,89.9919,270.1244,0.00018607,2.674e-05,0.0,0 STARLINK-4031,1 52679U 22053Z   23306.54097856  .00002674  00000-0  18607-3 0  9993,2 52679  53.2187  36.4980 0001495  89.9919 270.1244 15.08837043 81199,6917.889,95.438,540.789,538.72,0.0
52679.0,STARLINK-4031,PAYLOAD,2023-11-03 12:49:47,15.08848058,0.0001228,53.2187,32.0385,85.3875,274.7257,0.00011758,1.584e-05,0.0,0 STARLINK-4031,1 52679U 22053Z   23307.53457465  .00001584  00000-0  11758-3 0  9998,2 52679  53.2187  32.0385 0001228  85.3875 274.7257 15.08848058 81737,6917.856,95.437,540.57,538.871,0.0
52679.0,STARLINK-4031,PAYLOAD,2023-11-03 22:22:05,15.0884891,0.0001266,53.2181,30.2553,82.2265,277.8871,3.4616e-05,2.63e-06,0.0,0 STARLINK-4031,1 52679U 22053Z   23307.93201210  .00000263  00000-0  34616-4 0  9999,2 52679  53.2181  30.2553 0001266  82.2265 277.8871 15.08848910 81798,6917.853,95.437,540.594,538.842,0.0
52679.0,STARLINK-4031,PAYLOAD,2023-11-04 11:05:11,15.08840846,0.0001377,53.2178,27.876,83.5072,276.6077,6.8327e-05,8e-06,0.0,0 STARLINK-4031,1 52679U 22053Z   23308.46193928  .00000800  00000-0  68327-4 0  9997,2 52679  53.2178  27.8760 0001377  83.5072 276.6077 15.08840846 81480,6917.878,95.438,540.695,538.79,0.0
52679.0,STARLINK-4031,PAYLOAD,2023-11-04 12:40:34,15.08841848,0.0001374,53.2178,27.579,79.7743,280.3404,7.983e-05,9.83e-06,0.0,0 STARLINK-4031,1 52679U 22053Z   23308.52817891  .00000983  00000-0  79830-4 0  9999,2 52679  53.2178  27.5790 0001374  79.7743 280.3404 15.08841848 81882,6917.875,95.437,540.69,538.789,0.0
52679.0,STARLINK-4031,PAYLOAD,2023-11-04 22:12:53,15.08838693,0.0001245,53.2182,25.7958,84.3246,275.7888,0.00010692,1.414e-05,0.0,0 STARLINK-4031,1 52679U 22053Z   23308.92562229  .00001414  00000-0  10692-3 0  9995,2 52679  53.2182  25.7958 0001245  84.3246 275.7888 15.08838693 81945,6917.884,95.438,540.611,538.888,0.0
52679.0,STARLINK-4031,PAYLOAD,2023-11-05 12:31:20,15.08862935,0.0001434,53.2184,23.1192,91.2111,268.9045,0.00031883,4.793e-05,0.0,0 STARLINK-4031,1 52679U 22053Z   23309.52176701  .00004793  00000-0  31883-3 0  9996,2 52679  53.2184  23.1192 0001434  91.2111 268.9045 15.08862935 82033,6917.81,95.436,540.667,538.683,0.0
52679.0,STARLINK-4031,PAYLOAD,2023-11-06 04:25:12,15.08849298,0.0001418,53.2182,20.1457,102.5823,257.5328,0.0002658,3.946e-05,0.0,0 STARLINK-4031,1 52679U 22053Z   23310.18417159  .00003946  00000-0  26580-3 0  9992,2 52679  53.2182  20.1457 0001418 102.5823 257.5328 15.08849298 81742,6917.852,95.437,540.698,538.736,0.0
52679.0,STARLINK-4031,PAYLOAD,2023-11-06 10:46:44,15.08867128,0.0001503,53.2173,18.9565,82.6223,277.4939,0.000429,6.551e-05,0.0,0 STARLINK-4031,1 52679U 22053Z   23310.44912229  .00006551  00000-0  42900-3 0  9998,2 52679  53.2173  18.9565 0001503  82.6223 277.4939 15.08867128 81789,6917.797,95.436,540.702,538.623,0.0
52679.0,STARLINK-4031,PAYLOAD,2023-11-06 12:22:07,15.08861331,0.0002314,53.2172,18.6593,39.6813,320.4348,0.00035504,5.37e-05,0.0,0 STARLINK-4031,1 52679U 22053Z   23310.51536616  .00005370  00000-0  35504-3 0  9998,2 52679  53.2172  18.6593 0002314  39.6813 320.4348 15.08861331 82182,6917.815,95.436,541.281,538.079,0.0
52679.0,STARLINK-4031,PAYLOAD,2023-11-06 21:54:29,15.08792245,0.0001215,53.2178,16.8754,85.0876,275.0255,-0.00088573,-0.00014338,0.0,0 STARLINK-4031,1 52679U 22053Z   23310.91283645 -.00014338  00000-0 -88573-3 0  9993,2 52679  53.2178  16.8754 0001215  85.0876 275.0255 15.08792245 82246,6918.026,95.441,540.732,539.051,0.0
52679.0,STARLINK-4031,PAYLOAD,2023-11-07 10:37:34,15.08821019,0.0001185,53.2191,14.4954,96.5365,263.5762,-3.9473e-05,-9.16e-06,0.0,0 STARLINK-4031,1 52679U 22053Z   23311.44275888 -.00000916  00000-0 -39473-4 0  9995,2 52679  53.2191  14.4954 0001185  96.5365 263.5762 15.08821019 81935,6917.938,95.439,540.623,538.984,0.0
